[
    {
        "Altitude(m)": 611967.2056832366,
        "Argument of Periapsis(deg)": 0.0,
        "Eccentricity": 0.0,
        "Inclination(deg)": 60.0,
        "Latitude(deg)": 59.14024266569794,
        "Longitude(deg)": 61.0919667961357,
        "Mean Anomaly(deg)": 98.18179999999998,
        "RAAN(deg)": 55.00000000000001,
        "Satellite Name": "Test1 248",
        "Satellite Number": 248,
        "Semi-Major Axis(m)": 6980739.136638005,
        "Time(s)": 0
    },
    {
        "Altitude(m)": 611934.405970901,
        "Argument of Periapsis(deg)": 0.00010418945913296404,
        "Eccentricity": 0.0,
        "Inclination(deg)": 60.0,
        "Latitude(deg)": 58.98660590514533,
        "Longitude(deg)": 62.21521573181829,
        "Mean Anomaly(deg)": 98.80190614546183,
        "RAAN(deg)": 54.999579950860266,
        "Satellite Name": "Test1 248",
        "Satellite Number": 248,
        "Semi-Major Axis(m)": 6980739.136638005,
        "Time(s)": 10
    }
]